{
  "norad_id": 62776,
  "name": "STARLINK-33570",
  "history": [
    {
      "epoch": "2026-03-28T16:40:41.424960",
      "apogee_km": 476.01618081891775,
      "perigee_km": 474.47115468118045,
      "latitude_deg": -6.27209153219991,
      "longitude_deg": 164.31269440008327,
      "semi_major_axis_km": 6853.380667750049,
      "eccentricity": 0.00011272,
      "inclination_deg": 53.1578,
      "raan_deg": 233.984,
      "arg_perigee_deg": 80.8001,
      "mean_anomaly_deg": 279.3127,
      "mean_motion_rev_day": 15.30190422
    }
  ]
}