{"fetched_at":"2026-03-29T16:36:15Z","count":15609,"tles":[{"name":"STARLINK-33570","line1":"1 62776U 25015U   26087.69492390  .00045910  00000+0  15531-2 0  9991","line2":"2 62776  53.1578 233.9840 0001127  80.8001 279.3127 15.30190422 67333","category":"Starlink"}]}